{
  "type": "FeatureCollection",
  "features": [
    {
      "type": "Feature",
      "properties": {
        "norad_id": 38755,
        "name": "SPOT 6",
        "group": "resource",
        "lat": -9.110509539391598,
        "lon": 58.29362266334455,
        "alt_km": 701.9358171653566,
        "timestamp": "2025-12-18T07:01:54.244584+00:00",
        "meta_object_name": "SPOT 6",
        "meta_object_id": "2012-047A",
        "meta_epoch": "2025-12-17T22:50:29.478912",
        "meta_mean_motion": 14.58536756,
        "meta_eccentricity": 0.00013443,
        "meta_inclination": 98.1572,
        "meta_ra_of_asc_node": 56.6407,
        "meta_arg_of_pericenter": 78.5063,
        "meta_mean_anomaly": 281.6287,
        "meta_ephemeris_type": 0,
        "meta_classification_type": "U",
        "meta_norad_cat_id": 38755,
        "meta_element_set_no": 999,
        "meta_rev_at_epoch": 70663,
        "meta_bstar": 3.22641e-05,
        "meta_mean_motion_dot": 1.05e-06,
        "meta_mean_motion_ddot": 0,
        "tle_line1": "1 38755U 12047A   25351.95173008  .00000105  00000+0  32264-4 0  9997",
        "tle_line2": "2 38755  98.1572  56.6407 0001344  78.5063 281.6287 14.58536756706637"
      },
      "geometry": {
        "type": "Point",
        "coordinates": [
          58.29362266334455,
          -9.110509539391598
        ]
      }
    },
    {
      "type": "Feature",
      "properties": {
        "norad_id": 39019,
        "name": "PLEIADES 1B",
        "group": "resource",
        "lat": -67.4122866997158,
        "lon": -135.36944825116984,
        "alt_km": 705.882364639865,
        "timestamp": "2025-12-18T07:01:54.244594+00:00",
        "meta_object_name": "PLEIADES 1B",
        "meta_object_id": "2012-068A",
        "meta_epoch": "2025-12-17T23:18:31.010400",
        "meta_mean_motion": 14.58557153,
        "meta_eccentricity": 0.0001171,
        "meta_inclination": 98.1793,
        "meta_ra_of_asc_node": 64.5405,
        "meta_arg_of_pericenter": 84.817,
        "meta_mean_anomaly": 275.3163,
        "meta_ephemeris_type": 0,
        "meta_classification_type": "U",
        "meta_norad_cat_id": 39019,
        "meta_element_set_no": 999,
        "meta_rev_at_epoch": 69443,
        "meta_bstar": 5.5300153e-05,
        "meta_mean_motion_dot": 2.12e-06,
        "meta_mean_motion_ddot": 0,
        "tle_line1": "1 39019U 12068A   25351.97119225  .00000212  00000+0  55300-4 0  9992",
        "tle_line2": "2 39019  98.1793  64.5405 0001171  84.8170 275.3163 14.58557153694430"
      },
      "geometry": {
        "type": "Point",
        "coordinates": [
          -135.36944825116984,
          -67.4122866997158
        ]
      }
    },
    {
      "type": "Feature",
      "properties": {
        "norad_id": 39030,
        "name": "GOKTURK 2",
        "group": "resource",
        "lat": 75.86396036551106,
        "lon": 161.23117395982865,
        "alt_km": 636.3084769371453,
        "timestamp": "2025-12-18T07:01:54.244604+00:00",
        "meta_object_name": "GOKTURK 2",
        "meta_object_id": "2012-073A",
        "meta_epoch": "2025-12-17T22:32:24.516096",
        "meta_mean_motion": 14.75299353,
        "meta_eccentricity": 0.00011529,
        "meta_inclination": 97.6892,
        "meta_ra_of_asc_node": 193.3367,
        "meta_arg_of_pericenter": 107.4961,
        "meta_mean_anomaly": 252.6375,
        "meta_ephemeris_type": 0,
        "meta_classification_type": "U",
        "meta_norad_cat_id": 39030,
        "meta_element_set_no": 999,
        "meta_rev_at_epoch": 69778,
        "meta_bstar": 0.00011511751,
        "meta_mean_motion_dot": 7.33e-06,
        "meta_mean_motion_ddot": 0,
        "tle_line1": "1 39030U 12073A   25351.93917264  .00000733  00000+0  11512-3 0  9990",
        "tle_line2": "2 39030  97.6892 193.3367 0001152 107.4961 252.6375 14.75299353697782"
      },
      "geometry": {
        "type": "Point",
        "coordinates": [
          161.23117395982865,
          75.86396036551106
        ]
      }
    },
    {
      "type": "Feature",
      "properties": {
        "norad_id": 39084,
        "name": "LANDSAT 8",
        "group": "resource",
        "lat": 29.699442993569857,
        "lon": 55.5626742116408,
        "alt_km": 700.6269931343222,
        "timestamp": "2025-12-18T07:01:54.244615+00:00",
        "meta_object_name": "LANDSAT 8",
        "meta_object_id": "2013-008A",
        "meta_epoch": "2025-12-17T19:21:28.446336",
        "meta_mean_motion": 14.57118995,
        "meta_eccentricity": 0.0001059,
        "meta_inclination": 98.2068,
        "meta_ra_of_asc_node": 59.8052,
        "meta_arg_of_pericenter": 91.5621,
        "meta_mean_anomaly": 268.5699,
        "meta_ephemeris_type": 0,
        "meta_classification_type": "U",
        "meta_norad_cat_id": 39084,
        "meta_element_set_no": 999,
        "meta_rev_at_epoch": 67148,
        "meta_bstar": 8.6273133e-05,
        "meta_mean_motion_dot": 3.44e-06,
        "meta_mean_motion_ddot": 0,
        "tle_line1": "1 39084U 13008A   25351.80657924  .00000344  00000+0  86273-4 0  9993",
        "tle_line2": "2 39084  98.2068  59.8052 0001059  91.5621 268.5699 14.57118995671488"
      },
      "geometry": {
        "type": "Point",
        "coordinates": [
          55.5626742116408,
          29.699442993569857
        ]
      }
    },
    {
      "type": "Feature",
      "properties": {
        "norad_id": 39086,
        "name": "SARAL",
        "group": "resource",
        "lat": -68.0779895991372,
        "lon": -25.801037967044003,
        "alt_km": 791.6211629437521,
        "timestamp": "2025-12-18T07:01:54.244625+00:00",
        "meta_object_name": "SARAL",
        "meta_object_id": "2013-009A",
        "meta_epoch": "2025-12-17T19:48:49.349952",
        "meta_mean_motion": 14.32758773,
        "meta_eccentricity": 0.00029411,
        "meta_inclination": 98.5502,
        "meta_ra_of_asc_node": 175.6896,
        "meta_arg_of_pericenter": 99.0919,
        "meta_mean_anomaly": 261.0598,
        "meta_ephemeris_type": 0,
        "meta_classification_type": "U",
        "meta_norad_cat_id": 39086,
        "meta_element_set_no": 999,
        "meta_rev_at_epoch": 66963,
        "meta_bstar": 5.2490332e-05,
        "meta_mean_motion_dot": 9.9e-07,
        "meta_mean_motion_ddot": 0,
        "tle_line1": "1 39086U 13009A   25351.82557118  .00000099  00000+0  52490-4 0  9993",
        "tle_line2": "2 39086  98.5502 175.6896 0002941  99.0919 261.0598 14.32758773669630"
      },
      "geometry": {
        "type": "Point",
        "coordinates": [
          -25.801037967044003,
          -68.0779895991372
        ]
      }
    },
    {
      "type": "Feature",
      "properties": {
        "norad_id": 39150,
        "name": "GAOFEN-1",
        "group": "resource",
        "lat": -1.3938381807677804,
        "lon": -117.33998810034115,
        "alt_km": 636.0730107749914,
        "timestamp": "2025-12-18T07:01:54.244656+00:00",
        "meta_object_name": "GAOFEN-1",
        "meta_object_id": "2013-018A",
        "meta_epoch": "2025-12-17T23:42:33.150816",
        "meta_mean_motion": 14.76544135,
        "meta_eccentricity": 0.00184607,
        "meta_inclination": 97.9327,
        "meta_ra_of_asc_node": 62.5547,
        "meta_arg_of_pericenter": 126.8717,
        "meta_mean_anomaly": 233.4188,
        "meta_ephemeris_type": 0,
        "meta_classification_type": "U",
        "meta_norad_cat_id": 39150,
        "meta_element_set_no": 999,
        "meta_rev_at_epoch": 68150,
        "meta_bstar": 0.00012241975,
        "meta_mean_motion_dot": 8.05e-06,
        "meta_mean_motion_ddot": 0,
        "tle_line1": "1 39150U 13018A   25351.98788369  .00000805  00000+0  12242-3 0  9991",
        "tle_line2": "2 39150  97.9327  62.5547 0018460 126.8717 233.4188 14.76544135681506"
      },
      "geometry": {
        "type": "Point",
        "coordinates": [
          -117.33998810034115,
          -1.3938381807677804
        ]
      }
    },
    {
      "type": "Feature",
      "properties": {
        "norad_id": 39160,
        "name": "VNREDSAT 1",
        "group": "resource",
        "lat": 11.545457108129558,
        "lon": 45.74027817624247,
        "alt_km": 678.3132732942449,
        "timestamp": "2025-12-18T07:01:54.244668+00:00",
        "meta_object_name": "VNREDSAT 1",
        "meta_object_id": "2013-021B",
        "meta_epoch": "2025-12-17T22:46:56.059680",
        "meta_mean_motion": 14.64930421,
        "meta_eccentricity": 0.00012241,
        "meta_inclination": 97.9374,
        "meta_ra_of_asc_node": 47.0418,
        "meta_arg_of_pericenter": 78.0969,
        "meta_mean_anomaly": 282.0371,
        "meta_ephemeris_type": 0,
        "meta_classification_type": "U",
        "meta_norad_cat_id": 39160,
        "meta_element_set_no": 999,
        "meta_rev_at_epoch": 67375,
        "meta_bstar": 0.00010417658,
        "meta_mean_motion_dot": 5.12e-06,
        "meta_mean_motion_ddot": 0,
        "tle_line1": "1 39160U 13021B   25351.94925995  .00000512  00000+0  10418-3 0  9998",
        "tle_line2": "2 39160  97.9374  47.0418 0001224  78.0969 282.0371 14.64930421673757"
      },
      "geometry": {
        "type": "Point",
        "coordinates": [
          45.74027817624247,
          11.545457108129558
        ]
      }
    }
  ]
}